{
  "type": "FeatureCollection",
  "features": [
    {
      "type": "Feature",
      "properties": {
        "norad_id": 66561,
        "name": "STARLINK-35305",
        "group": "last-30-days",
        "lat": 38.87083983354004,
        "lon": 156.24803386639533,
        "alt_km": 408.7058551168302,
        "timestamp": "2025-12-16T23:36:34.922681+00:00",
        "meta_object_name": "STARLINK-35305",
        "meta_object_id": "2025-268E",
        "meta_epoch": "2025-12-16T07:51:47.086848",
        "meta_mean_motion": 15.50585234,
        "meta_eccentricity": 2.005e-05,
        "meta_inclination": 42.9978,
        "meta_ra_of_asc_node": 100.1956,
        "meta_arg_of_pericenter": 264.032,
        "meta_mean_anomaly": 96.0517,
        "meta_ephemeris_type": 0,
        "meta_classification_type": "U",
        "meta_norad_cat_id": 66561,
        "meta_element_set_no": 999,
        "meta_rev_at_epoch": 518,
        "meta_bstar": 0.0010500338,
        "meta_mean_motion_dot": 0.0006176,
        "meta_mean_motion_ddot": 0,
        "tle_line1": "1 66561U 25268E   25350.32762832  .00061760  00000+0  10500-2 0  9992",
        "tle_line2": "2 66561  42.9978 100.1956 0000200 264.0320  96.0517 15.50585234  5186"
      },
      "geometry": {
        "type": "Point",
        "coordinates": [
          156.24803386639533,
          38.87083983354004
        ]
      }
    },
    {
      "type": "Feature",
      "properties": {
        "norad_id": 66562,
        "name": "STARLINK-35579",
        "group": "last-30-days",
        "lat": 38.29756775734237,
        "lon": 154.2951288808482,
        "alt_km": 408.9527365975864,
        "timestamp": "2025-12-16T23:36:34.922692+00:00",
        "meta_object_name": "STARLINK-35579",
        "meta_object_id": "2025-268F",
        "meta_epoch": "2025-12-16T00:08:30.916032",
        "meta_mean_motion": 15.50613909,
        "meta_eccentricity": 0.00015635,
        "meta_inclination": 42.9989,
        "meta_ra_of_asc_node": 102.0797,
        "meta_arg_of_pericenter": 284.0644,
        "meta_mean_anomaly": 76.0043,
        "meta_ephemeris_type": 0,
        "meta_classification_type": "U",
        "meta_norad_cat_id": 66562,
        "meta_element_set_no": 999,
        "meta_rev_at_epoch": 513,
        "meta_bstar": 0.0018183192,
        "meta_mean_motion_dot": 0.00107948,
        "meta_mean_motion_ddot": 0,
        "tle_line1": "1 66562U 25268F   25350.00591338  .00107948  00000+0  18183-2 0  9993",
        "tle_line2": "2 66562  42.9989 102.0797 0001563 284.0644  76.0043 15.50613909  5135"
      },
      "geometry": {
        "type": "Point",
        "coordinates": [
          154.2951288808482,
          38.29756775734237
        ]
      }
    },
    {
      "type": "Feature",
      "properties": {
        "norad_id": 66563,
        "name": "STARLINK-35437",
        "group": "last-30-days",
        "lat": 39.53979925134871,
        "lon": 158.71977723126258,
        "alt_km": 408.71460585567,
        "timestamp": "2025-12-16T23:36:34.922702+00:00",
        "meta_object_name": "STARLINK-35437",
        "meta_object_id": "2025-268G",
        "meta_epoch": "2025-12-16T07:51:16.369056",
        "meta_mean_motion": 15.50604557,
        "meta_eccentricity": 4.378e-05,
        "meta_inclination": 42.9976,
        "meta_ra_of_asc_node": 100.1921,
        "meta_arg_of_pericenter": 244.9377,
        "meta_mean_anomaly": 115.1438,
        "meta_ephemeris_type": 0,
        "meta_classification_type": "U",
        "meta_norad_cat_id": 66563,
        "meta_element_set_no": 999,
        "meta_rev_at_epoch": 518,
        "meta_bstar": 0.0010520461,
        "meta_mean_motion_dot": 0.00061923,
        "meta_mean_motion_ddot": 0,
        "tle_line1": "1 66563U 25268G   25350.32727279  .00061923  00000+0  10520-2 0  9993",
        "tle_line2": "2 66563  42.9976 100.1921 0000437 244.9377 115.1438 15.50604557  5184"
      },
      "geometry": {
        "type": "Point",
        "coordinates": [
          158.71977723126258,
          39.53979925134871
        ]
      }
    },
    {
      "type": "Feature",
      "properties": {
        "norad_id": 66564,
        "name": "STARLINK-35358",
        "group": "last-30-days",
        "lat": 40.09527113336515,
        "lon": 160.96771019418244,
        "alt_km": 409.7180263227401,
        "timestamp": "2025-12-16T23:36:34.922713+00:00",
        "meta_object_name": "STARLINK-35358",
        "meta_object_id": "2025-268H",
        "meta_epoch": "2025-12-16T07:50:47.301504",
        "meta_mean_motion": 15.505846,
        "meta_eccentricity": 0.00021488,
        "meta_inclination": 43.0001,
        "meta_ra_of_asc_node": 100.1873,
        "meta_arg_of_pericenter": 272.5091,
        "meta_mean_anomaly": 87.5523,
        "meta_ephemeris_type": 0,
        "meta_classification_type": "U",
        "meta_norad_cat_id": 66564,
        "meta_element_set_no": 999,
        "meta_rev_at_epoch": 518,
        "meta_bstar": 0.00097595829,
        "meta_mean_motion_dot": 0.00057347,
        "meta_mean_motion_ddot": 0,
        "tle_line1": "1 66564U 25268H   25350.32693636  .00057347  00000+0  97596-3 0  9997",
        "tle_line2": "2 66564  43.0001 100.1873 0002148 272.5091  87.5523 15.50584600  5186"
      },
      "geometry": {
        "type": "Point",
        "coordinates": [
          160.96771019418244,
          40.09527113336515
        ]
      }
    },
    {
      "type": "Feature",
      "properties": {
        "norad_id": 66565,
        "name": "STARLINK-35893",
        "group": "last-30-days",
        "lat": 40.66793735395681,
        "lon": 163.55653188729056,
        "alt_km": 409.1630007282756,
        "timestamp": "2025-12-16T23:36:34.922723+00:00",
        "meta_object_name": "STARLINK-35893",
        "meta_object_id": "2025-268J",
        "meta_epoch": "2025-12-16T07:50:17.657664",
        "meta_mean_motion": 15.50609279,
        "meta_eccentricity": 0.00017639,
        "meta_inclination": 43.0007,
        "meta_ra_of_asc_node": 100.1851,
        "meta_arg_of_pericenter": 270.3287,
        "meta_mean_anomaly": 89.7371,
        "meta_ephemeris_type": 0,
        "meta_classification_type": "U",
        "meta_norad_cat_id": 66565,
        "meta_element_set_no": 999,
        "meta_rev_at_epoch": 518,
        "meta_bstar": 0.0018131234,
        "meta_mean_motion_dot": 0.00107616,
        "meta_mean_motion_ddot": 0,
        "tle_line1": "1 66565U 25268J   25350.32659326  .00107616  00000+0  18131-2 0  9998",
        "tle_line2": "2 66565  43.0007 100.1851 0001763 270.3287  89.7371 15.50609279  5189"
      },
      "geometry": {
        "type": "Point",
        "coordinates": [
          163.55653188729056,
          40.66793735395681
        ]
      }
    },
    {
      "type": "Feature",
      "properties": {
        "norad_id": 66566,
        "name": "STARLINK-35871",
        "group": "last-30-days",
        "lat": 41.152122122964755,
        "lon": 166.04039183421344,
        "alt_km": 407.76271592771263,
        "timestamp": "2025-12-16T23:36:34.922734+00:00",
        "meta_object_name": "STARLINK-35871",
        "meta_object_id": "2025-268K",
        "meta_epoch": "2025-12-16T07:49:47.939520",
        "meta_mean_motion": 15.5064265,
        "meta_eccentricity": 0.00015241,
        "meta_inclination": 42.9986,
        "meta_ra_of_asc_node": 100.1822,
        "meta_arg_of_pericenter": 143.1785,
        "meta_mean_anomaly": 216.918,
        "meta_ephemeris_type": 0,
        "meta_classification_type": "U",
        "meta_norad_cat_id": 66566,
        "meta_element_set_no": 999,
        "meta_rev_at_epoch": 518,
        "meta_bstar": 0.0010563856,
        "meta_mean_motion_dot": 0.00062268,
        "meta_mean_motion_ddot": 0,
        "tle_line1": "1 66566U 25268K   25350.32624930  .00062268  00000+0  10564-2 0  9997",
        "tle_line2": "2 66566  42.9986 100.1822 0001524 143.1785 216.9180 15.50642650  5189"
      },
      "geometry": {
        "type": "Point",
        "coordinates": [
          166.04039183421344,
          41.152122122964755
        ]
      }
    },
    {
      "type": "Feature",
      "properties": {
        "norad_id": 66567,
        "name": "STARLINK-35825",
        "group": "last-30-days",
        "lat": 41.60509573951095,
        "lon": 168.69442581684643,
        "alt_km": 408.7309520566014,
        "timestamp": "2025-12-16T23:36:34.922744+00:00",
        "meta_object_name": "STARLINK-35825",
        "meta_object_id": "2025-268L",
        "meta_epoch": "2025-12-15T16:21:44.113248",
        "meta_mean_motion": 15.50589598,
        "meta_eccentricity": 0.00015369,
        "meta_inclination": 42.9976,
        "meta_ra_of_asc_node": 103.9443,
        "meta_arg_of_pericenter": 289.9461,
        "meta_mean_anomaly": 70.1233,
        "meta_ephemeris_type": 0,
        "meta_classification_type": "U",
        "meta_norad_cat_id": 66567,
        "meta_element_set_no": 999,
        "meta_rev_at_epoch": 508,
        "meta_bstar": 0.00094660219,
        "meta_mean_motion_dot": 0.00055608,
        "meta_mean_motion_ddot": 0,
        "tle_line1": "1 66567U 25268L   25349.68176057  .00055608  00000+0  94660-3 0  9997",
        "tle_line2": "2 66567  42.9976 103.9443 0001536 289.9461  70.1233 15.50589598  5081"
      },
      "geometry": {
        "type": "Point",
        "coordinates": [
          168.69442581684643,
          41.60509573951095
        ]
      }
    }
  ]
}